[{"OBJECT_NAME":"ONEWEB-0107","OBJECT_ID":"2021-025G","EPOCH":"2025-11-20T03:35:14.759232","MEAN_MOTION":13.13470309,"ECCENTRICITY":0.00017713,"INCLINATION":87.9008,"RA_OF_ASC_NODE":1.7492,"ARG_OF_PERICENTER":88.0325,"MEAN_ANOMALY":272.1007,"EPHEMERIS_TYPE":0,"CLASSIFICATION_TYPE":"U","NORAD_CAT_ID":48048,"ELEMENT_SET_NO":999,"REV_AT_EPOCH":22608,"BSTAR":-0.00017691461,"MEAN_MOTION_DOT":-5.2e-7,"MEAN_MOTION_DDOT":0},{"OBJECT_NAME":"ONEWEB-0101","OBJECT_ID":"2021-025H","EPOCH":"2025-11-20T04:31:19.146720","MEAN_MOTION":13.13469403,"ECCENTRICITY":0.00019045,"INCLINATION":87.9001,"RA_OF_ASC_NODE":1.7764,"ARG_OF_PERICENTER":92.0766,"MEAN_ANOMALY":268.0581,"EPHEMERIS_TYPE":0,"CLASSIFICATION_TYPE":"U","NORAD_CAT_ID":48049,"ELEMENT_SET_NO":999,"REV_AT_EPOCH":22606,"BSTAR":0.00061856335,"MEAN_MOTION_DOT":2.39e-6,"MEAN_MOTION_DDOT":0},{"OBJECT_NAME":"ONEWEB-0113","OBJECT_ID":"2021-025J","EPOCH":"2025-11-20T03:17:50.114112","MEAN_MOTION":13.13983642,"ECCENTRICITY":0.00017292,"INCLINATION":87.9005,"RA_OF_ASC_NODE":1.7183,"ARG_OF_PERICENTER":104.0974,"MEAN_ANOMALY":256.0348,"EPHEMERIS_TYPE":0,"CLASSIFICATION_TYPE":"U","NORAD_CAT_ID":48050,"ELEMENT_SET_NO":999,"REV_AT_EPOCH":22615,"BSTAR":-0.00066641093,"MEAN_MOTION_DOT":-2.32e-6,"MEAN_MOTION_DDOT":0},{"OBJECT_NAME":"ONEWEB-0112","OBJECT_ID":"2021-025K","EPOCH":"2025-11-20T03:42:33.672096","MEAN_MOTION":13.13470138,"ECCENTRICITY":0.00017348,"INCLINATION":87.9008,"RA_OF_ASC_NODE":1.745,"ARG_OF_PERICENTER":95.3068,"MEAN_ANOMALY":264.8259,"EPHEMERIS_TYPE":0,"CLASSIFICATION_TYPE":"U","NORAD_CAT_ID":48051,"ELEMENT_SET_NO":999,"REV_AT_EPOCH":22615,"BSTAR":-0.0001891928,"MEAN_MOTION_DOT":-5.6e-7,"MEAN_MOTION_DDOT":0},{"OBJECT_NAME":"ONEWEB-0156","OBJECT_ID":"2021-025L","EPOCH":"2025-11-20T03:54:44.416512","MEAN_MOTION":13.13469763,"ECCENTRICITY":0.00017523,"INCLINATION":87.9006,"RA_OF_ASC_NODE":1.7551,"ARG_OF_PERICENTER":93.7942,"MEAN_ANOMALY":266.3388,"EPHEMERIS_TYPE":0,"CLASSIFICATION_TYPE":"U","NORAD_CAT_ID":48052,"ELEMENT_SET_NO":999,"REV_AT_EPOCH":22613,"BSTAR":0.0005009661,"MEAN_MOTION_DOT":1.96e-6,"MEAN_MOTION_DDOT":0},{"OBJECT_NAME":"ONEWEB-0161","OBJECT_ID":"2021-025M","EPOCH":"2025-11-20T03:18:09.859104","MEAN_MOTION":13.13468807,"ECCENTRICITY":0.00017124,"INCLINATION":87.9002,"RA_OF_ASC_NODE":1.7772,"ARG_OF_PERICENTER":90.4151,"MEAN_ANOMALY":269.7174,"EPHEMERIS_TYPE":0,"CLASSIFICATION_TYPE":"U","NORAD_CAT_ID":48053,"ELEMENT_SET_NO":999,"REV_AT_EPOCH":22606,"BSTAR":-0.00069775335,"MEAN_MOTION_DOT":-2.42e-6,"MEAN_MOTION_DDOT":0},{"OBJECT_NAME":"ONEWEB-0158","OBJECT_ID":"2021-025N","EPOCH":"2025-11-20T04:09:22.097088","MEAN_MOTION":13.13469374,"ECCENTRICITY":0.00020653,"INCLINATION":87.901,"RA_OF_ASC_NODE":1.7531,"ARG_OF_PERICENTER":101.0882,"MEAN_ANOMALY":259.0479,"EPHEMERIS_TYPE":0,"CLASSIFICATION_TYPE":"U","NORAD_CAT_ID":48054,"ELEMENT_SET_NO":999,"REV_AT_EPOCH":22619,"BSTAR":0.00097024247,"MEAN_MOTION_DOT":3.67e-6,"MEAN_MOTION_DDOT":0},{"OBJECT_NAME":"ONEWEB-0157","OBJECT_ID":"2021-025P","EPOCH":"2025-11-20T02:56:13.821216","MEAN_MOTION":13.13468667,"ECCENTRICITY":0.00017854,"INCLINATION":87.9008,"RA_OF_ASC_NODE":1.7697,"ARG_OF_PERICENTER":83.0981,"MEAN_ANOMALY":277.0352,"EPHEMERIS_TYPE":0,"CLASSIFICATION_TYPE":"U","NORAD_CAT_ID":48055,"ELEMENT_SET_NO":999,"REV_AT_EPOCH":22612,"BSTAR":-9.1158679e-5,"MEAN_MOTION_DOT":-2.1e-7,"MEAN_MOTION_DDOT":0},{"OBJECT_NAME":"ONEWEB-0162","OBJECT_ID":"2021-025Q","EPOCH":"2025-11-20T04:11:37.497984","MEAN_MOTION":13.13470419,"ECCENTRICITY":0.00016485,"INCLINATION":87.9009,"RA_OF_ASC_NODE":1.7606,"ARG_OF_PERICENTER":96.5169,"MEAN_ANOMALY":263.6148,"EPHEMERIS_TYPE":0,"CLASSIFICATION_TYPE":"U","NORAD_CAT_ID":48056,"ELEMENT_SET_NO":999,"REV_AT_EPOCH":22610,"BSTAR":0.0011329375,"MEAN_MOTION_DOT":4.26e-6,"MEAN_MOTION_DDOT":0},{"OBJECT_NAME":"ONEWEB-0155","OBJECT_ID":"2021-025R","EPOCH":"2025-11-20T04:21:34.459776","MEAN_MOTION":13.13470422,"ECCENTRICITY":0.00019271,"INCLINATION":87.9007,"RA_OF_ASC_NODE":1.7646,"ARG_OF_PERICENTER":91.7491,"MEAN_ANOMALY":268.3859,"EPHEMERIS_TYPE":0,"CLASSIFICATION_TYPE":"U","NORAD_CAT_ID":48057,"ELEMENT_SET_NO":999,"REV_AT_EPOCH":22624,"BSTAR":0.00085718831,"MEAN_MOTION_DOT":3.26e-6,"MEAN_MOTION_DDOT":0},{"OBJECT_NAME":"ONEWEB-0149","OBJECT_ID":"2021-025S","EPOCH":"2025-11-20T03:03:33.064992","MEAN_MOTION":13.13469399,"ECCENTRICITY":0.00016036,"INCLINATION":87.9006,"RA_OF_ASC_NODE":1.7693,"ARG_OF_PERICENTER":97.4074,"MEAN_ANOMALY":262.7237,"EPHEMERIS_TYPE":0,"CLASSIFICATION_TYPE":"U","NORAD_CAT_ID":48058,"ELEMENT_SET_NO":999,"REV_AT_EPOCH":22604,"BSTAR":-0.00050177957,"MEAN_MOTION_DOT":-1.7e-6,"MEAN_MOTION_DDOT":0},{"OBJECT_NAME":"ONEWEB-0148","OBJECT_ID":"2021-025T","EPOCH":"2025-11-20T03:59:37.118112","MEAN_MOTION":13.13469754,"ECCENTRICITY":0.00012358,"INCLINATION":87.8997,"RA_OF_ASC_NODE":1.7825,"ARG_OF_PERICENTER":91.9866,"MEAN_ANOMALY":268.1404,"EPHEMERIS_TYPE":0,"CLASSIFICATION_TYPE":"U","NORAD_CAT_ID":48059,"ELEMENT_SET_NO":999,"REV_AT_EPOCH":22617,"BSTAR":0.00068523259,"MEAN_MOTION_DOT":2.63e-6,"MEAN_MOTION_DDOT":0},{"OBJECT_NAME":"ONEWEB-0160","OBJECT_ID":"2021-025U","EPOCH":"2025-11-20T04:24:00.291744","MEAN_MOTION":13.13468814,"ECCENTRICITY":0.00022439,"INCLINATION":87.9,"RA_OF_ASC_NODE":1.7765,"ARG_OF_PERICENTER":115.2597,"MEAN_ANOMALY":244.8765,"EPHEMERIS_TYPE":0,"CLASSIFICATION_TYPE":"U","NORAD_CAT_ID":48060,"ELEMENT_SET_NO":999,"REV_AT_EPOCH":22612,"BSTAR":0.00080385773,"MEAN_MOTION_DOT":3.06e-6,"MEAN_MOTION_DDOT":0},{"OBJECT_NAME":"ONEWEB-0163","OBJECT_ID":"2021-025V","EPOCH":"2025-11-20T04:02:03.853824","MEAN_MOTION":13.13470087,"ECCENTRICITY":0.00018635,"INCLINATION":87.9006,"RA_OF_ASC_NODE":1.7642,"ARG_OF_PERICENTER":87.2241,"MEAN_ANOMALY":272.9101,"EPHEMERIS_TYPE":0,"CLASSIFICATION_TYPE":"U","NORAD_CAT_ID":48061,"ELEMENT_SET_NO":999,"REV_AT_EPOCH":22624,"BSTAR":0.00083945039,"MEAN_MOTION_DOT":3.19e-6,"MEAN_MOTION_DDOT":0},{"OBJECT_NAME":"ONEWEB-0159","OBJECT_ID":"2021-025W","EPOCH":"2025-11-20T03:49:52.559904","MEAN_MOTION":13.13470684,"ECCENTRICITY":0.00017018,"INCLINATION":87.9007,"RA_OF_ASC_NODE":1.7492,"ARG_OF_PERICENTER":89.7983,"MEAN_ANOMALY":270.3341,"EPHEMERIS_TYPE":0,"CLASSIFICATION_TYPE":"U","NORAD_CAT_ID":48062,"ELEMENT_SET_NO":999,"REV_AT_EPOCH":22616,"BSTAR":0.00031623367,"MEAN_MOTION_DOT":1.28e-6,"MEAN_MOTION_DDOT":0},{"OBJECT_NAME":"ONEWEB-0164","OBJECT_ID":"2021-025X","EPOCH":"2025-11-20T03:23:02.944320","MEAN_MOTION":13.13469478,"ECCENTRICITY":0.00018931,"INCLINATION":87.9006,"RA_OF_ASC_NODE":1.7607,"ARG_OF_PERICENTER":97.4173,"MEAN_ANOMALY":262.7171,"EPHEMERIS_TYPE":0,"CLASSIFICATION_TYPE":"U","NORAD_CAT_ID":48063,"ELEMENT_SET_NO":999,"REV_AT_EPOCH":22614,"BSTAR":-0.00083422589,"MEAN_MOTION_DOT":-2.92e-6,"MEAN_MOTION_DDOT":0},{"OBJECT_NAME":"ONEWEB-0167","OBJECT_ID":"2021-025Y","EPOCH":"2025-11-20T04:03:16.375392","MEAN_MOTION":13.13471638,"ECCENTRICITY":0.00023792,"INCLINATION":87.8999,"RA_OF_ASC_NODE":1.7842,"ARG_OF_PERICENTER":82.5727,"MEAN_ANOMALY":277.5673,"EPHEMERIS_TYPE":0,"CLASSIFICATION_TYPE":"U","NORAD_CAT_ID":48064,"ELEMENT_SET_NO":999,"REV_AT_EPOCH":22613,"BSTAR":0.00079218207,"MEAN_MOTION_DOT":3.02e-6,"MEAN_MOTION_DDOT":0}]
