ONEWEB-0107             
1 48048U 21025G   25324.14947638 -.00000052  00000+0 -17691-3 0  9997
2 48048  87.9008   1.7492 0001771  88.0325 272.1007 13.13470309226081
ONEWEB-0101             
1 48049U 21025H   25324.18841605  .00000239  00000+0  61856-3 0  9996
2 48049  87.9001   1.7764 0001904  92.0766 268.0581 13.13469403226061
ONEWEB-0113             
1 48050U 21025J   25324.13738558 -.00000232  00000+0 -66641-3 0  9997
2 48050  87.9005   1.7183 0001729 104.0974 256.0348 13.13983642226156
ONEWEB-0112             
1 48051U 21025K   25324.15455639 -.00000056  00000+0 -18919-3 0  9995
2 48051  87.9008   1.7450 0001734  95.3068 264.8259 13.13470138226158
ONEWEB-0156             
1 48052U 21025L   25324.16301408  .00000196  00000+0  50097-3 0  9997
2 48052  87.9006   1.7551 0001752  93.7942 266.3388 13.13469763226132
ONEWEB-0161             
1 48053U 21025M   25324.13761411 -.00000242  00000+0 -69775-3 0  9996
2 48053  87.9002   1.7772 0001712  90.4151 269.7174 13.13468807226066
ONEWEB-0158             
1 48054U 21025N   25324.17317242  .00000367  00000+0  97024-3 0  9994
2 48054  87.9010   1.7531 0002065 101.0882 259.0479 13.13469374226195
ONEWEB-0157             
1 48055U 21025P   25324.12238219 -.00000021  00000+0 -91159-4 0  9999
2 48055  87.9008   1.7697 0001785  83.0981 277.0352 13.13468667226120
ONEWEB-0162             
1 48056U 21025Q   25324.17473956  .00000426  00000+0  11329-2 0  9990
2 48056  87.9009   1.7606 0001648  96.5169 263.6148 13.13470419226107
ONEWEB-0155             
1 48057U 21025R   25324.18164884  .00000326  00000+0  85719-3 0  9993
2 48057  87.9007   1.7646 0001927  91.7491 268.3859 13.13470422226245
ONEWEB-0149             
1 48058U 21025S   25324.12746603 -.00000170  00000+0 -50178-3 0  9993
2 48058  87.9006   1.7693 0001603  97.4074 262.7237 13.13469399226045
ONEWEB-0148             
1 48059U 21025T   25324.16640183  .00000263  00000+0  68523-3 0  9998
2 48059  87.8997   1.7825 0001235  91.9866 268.1404 13.13469754226175
ONEWEB-0160             
1 48060U 21025U   25324.18333671  .00000306  00000+0  80386-3 0  9992
2 48060  87.9000   1.7765 0002243 115.2597 244.8765 13.13468814226129
ONEWEB-0163             
1 48061U 21025V   25324.16810016  .00000319  00000+0  83945-3 0  9992
2 48061  87.9006   1.7642 0001863  87.2241 272.9101 13.13470087226245
ONEWEB-0159             
1 48062U 21025W   25324.15963611  .00000128  00000+0  31623-3 0  9996
2 48062  87.9007   1.7492 0001701  89.7983 270.3341 13.13470684226163
ONEWEB-0164             
1 48063U 21025X   25324.14100630 -.00000292  00000+0 -83423-3 0  9999
2 48063  87.9006   1.7607 0001893  97.4173 262.7171 13.13469478226143
ONEWEB-0167             
1 48064U 21025Y   25324.16893953  .00000302  00000+0  79218-3 0  9996
2 48064  87.8999   1.7842 0002379  82.5727 277.5673 13.13471638226136
